[{"OBJECT_NAME":"STARLINK-35229","OBJECT_ID":"2025-207J","EPOCH":"2026-03-09T17:28:38.536320","MEAN_MOTION":15.05647227,"ECCENTRICITY":6.869e-5,"INCLINATION":97.6031,"RA_OF_ASC_NODE":138.6445,"ARG_OF_PERICENTER":88.9224,"MEAN_ANOMALY":271.2081,"EPHEMERIS_TYPE":0,"CLASSIFICATION_TYPE":"U","NORAD_CAT_ID":65600,"ELEMENT_SET_NO":999,"REV_AT_EPOCH":2826,"BSTAR":0.00036705652,"MEAN_MOTION_DOT":5.239e-5,"MEAN_MOTION_DDOT":0},{"OBJECT_NAME":"CZ-4B R\/B","OBJECT_ID":"2019-059D","EPOCH":"2026-03-09T22:53:45.354624","MEAN_MOTION":15.13308828,"ECCENTRICITY":0.01361486,"INCLINATION":98.7209,"RA_OF_ASC_NODE":86.9492,"ARG_OF_PERICENTER":209.5346,"MEAN_ANOMALY":149.8142,"EPHEMERIS_TYPE":0,"CLASSIFICATION_TYPE":"U","NORAD_CAT_ID":44531,"ELEMENT_SET_NO":999,"REV_AT_EPOCH":35472,"BSTAR":0.00025424701,"MEAN_MOTION_DOT":5.595e-5,"MEAN_MOTION_DDOT":0}]
